{
    "CCSDS_OMM_VERS": "3.0",
    "COMMENT": "GENERATED VIA SPACE-TRACK.ORG API",
    "CREATION_DATE": "2025-11-22T18:56:57",
    "ORIGINATOR": "18 SPCS",
    "OBJECT_NAME": "GALILEO 27 (223)",
    "OBJECT_ID": "2021-116A",
    "CENTER_NAME": "EARTH",
    "REF_FRAME": "TEME",
    "TIME_SYSTEM": "UTC",
    "MEAN_ELEMENT_THEORY": "SGP4",
    "EPOCH": "2025-11-21T08:03:18.580608",
    "MEAN_MOTION": "1.70476236",
    "ECCENTRICITY": "0.00044859",
    "INCLINATION": "57.2244",
    "RA_OF_ASC_NODE": "347.2922",
    "ARG_OF_PERICENTER": "242.8245",
    "MEAN_ANOMALY": "114.0407",
    "EPHEMERIS_TYPE": "0",
    "CLASSIFICATION_TYPE": "U",
    "NORAD_CAT_ID": "49809",
    "ELEMENT_SET_NO": "999",
    "REV_AT_EPOCH": "2463",
    "BSTAR": "0.00000000000000",
    "MEAN_MOTION_DOT": "-0.00000071",
    "MEAN_MOTION_DDOT": "0.0000000000000",
    "SEMIMAJOR_AXIS": "29600.061",
    "PERIOD": "844.693",
    "APOAPSIS": "23235.205",
    "PERIAPSIS": "23208.648",
    "OBJECT_TYPE": "PAYLOAD",
    "RCS_SIZE": "LARGE",
    "COUNTRY_CODE": "ESA",
    "LAUNCH_DATE": "2021-12-05",
    "SITE": "FRGUI",
    "DECAY_DATE": null,
    "FILE": "4894246",
    "GP_ID": "303257112",
    "TLE_LINE0": "0 GALILEO 27 (223)",
    "TLE_LINE1": "1 49809U 21116A   25325.33563172 -.00000071  00000-0  00000-0 0  9997",
    "TLE_LINE2": "2 49809  57.2244 347.2922 0004486 242.8245 114.0407  1.70476236 24632"
}